BEIDOU 3 (C01)          
1 36287U 10001A   21356.85204207 -.00000263  00000+0  00000+0 0  9993
2 36287   1.7855  44.9934 0001269  74.5321  59.2944  1.00272678 43741
BEIDOU 5 (C06)          
1 36828U 10036A   21356.93445116 -.00000049  00000+0  00000+0 0  9999
2 36828  54.1785 177.8531 0027053 177.3731 178.0498  1.00297851 41800
BEIDOU 6 (C04)          
1 37210U 10057A   21357.54383227 -.00000094  00000+0  00000+0 0  9990
2 37210   0.8552  47.6637 0006827 163.0018 237.4305  1.00270640 40873
BEIDOU 7 (C07)          
1 37256U 10068A   21357.55234083 -.00000182  00000+0  00000+0 0  9996
2 37256  50.5291 291.7517 0015440 189.3225 275.0942  1.00248830 40383
BEIDOU 8 (C08)          
1 37384U 11013A   21356.83406554 -.00000172  00000+0  00000+0 0  9992
2 37384  60.0413  56.0151 0021189 190.9751 249.0932  1.00300857 39254
BEIDOU 9 (C09)          
1 37763U 11038A   21357.20639757 -.00000009  00000+0  00000+0 0  9994
2 37763  54.4688 180.3188 0086468 225.2224 216.3711  1.00271182 38232
BEIDOU 10 (C10)         
1 37948U 11073A   21356.91473810 -.00000136  00000+0  00000+0 0  9992
2 37948  50.6378 291.3891 0078895 219.4023   3.6714  1.00292890 36981
BEIDOU 11 (C05)         
1 38091U 12008A   21356.87890419  .00000072  00000+0  00000+0 0  9992
2 38091   1.9696  71.4899 0005262 268.1248 127.2679  1.00276955 36062
BEIDOU 12 (C11)         
1 38250U 12018A   21356.54639941 -.00000068  00000+0  00000+0 0  9991
2 38250  56.7320 359.4038 0024946 252.0685 150.1029  1.86234288 65795
BEIDOU 13 (C12)         
1 38251U 12018B   21357.57083193 -.00000063  00000+0  00000+0 0  9993
2 38251  56.6524 358.7054 0015837 255.1768 158.1263  1.86234085 65812
BEIDOU 15 (C14)         
1 38775U 12050B   21357.24856517  .00000030  00000+0  00000+0 0  9995
2 38775  55.3022 117.6204 0011591 326.0951  68.1150  1.86231172 63183
BEIDOU 16 (C02)         
1 38953U 12059A   21355.87341170 -.00000155  00000+0  00000+0 0  9992
2 38953   1.5520  84.4775 0011151 274.5605 129.9391  1.00268152 33629
BEIDOU 17 (C31)         
1 40549U 15019A   21357.34580553 -.00000171  00000+0  00000+0 0  9997
2 40549  52.1869 314.8000 0036458 191.5213 166.4121  1.00280480 24661
BEIDOU 18 (C57)         
1 40748U 15037A   21357.10098122 -.00000066  00000+0  00000+0 0  9991
2 40748  55.9094 357.6945 0003515 325.3658  42.6229  1.86233303 43632
BEIDOU 19 (C58)         
1 40749U 15037B   21357.42159826 -.00000065  00000+0  00000+0 0  9995
2 40749  55.9143 357.6729 0006495 299.5753  58.6165  1.86232081 43623
BEIDOU 20 (C18)         
1 40938U 15053A   21357.23322925 -.00000119  00000+0  00000+0 0  9994
2 40938  51.7754 277.8979 0043283 195.2504 158.0433  1.00286342 22925
BEIDOU IGSO-6 (C13)     
1 41434U 16021A   21356.77369906 -.00000153  00000+0  00000+0 0  9998
2 41434  57.8391  54.6732 0045160 215.4101 196.0060  1.00276168 21060
BEIDOU-2 G7 (C03)       
1 41586U 16037A   21356.93125306 -.00000336  00000+0  00000+0 0  9998
2 41586   1.5874  66.2963 0007825 356.6173 114.5179  1.00266701 20379
BEIDOU-3 M1 (C19)       
1 43001U 17069A   21357.37523883  .00000031  00000+0  00000+0 0  9990
2 43001  55.4567 117.5932 0007799 284.7572 350.5003  1.86231566 28113
BEIDOU-3 M2 (C20)       
1 43002U 17069B   21357.30818278  .00000031  00000+0  00000+0 0  9999
2 43002  55.4559 117.6307 0005867 315.3247 318.1906  1.86231253 28100
BEIDOU-3 M3 (C27)       
1 43107U 18003A   21356.91972396 -.00000069  00000+0  00000+0 0  9994
2 43107  55.3585 358.6960 0003378  40.3071 138.7391  1.86232406 26867
BEIDOU-3 M4 (C28)       
1 43108U 18003B   21356.85282704 -.00000069  00000+0  00000+0 0  9995
2 43108  55.3522 358.6889 0004226 252.5668 286.5078  1.86230854 26860
BEIDOU-3 M5 (C21)       
1 43207U 18018A   21356.49538471  .00000024  00000+0  00000+0 0  9996
2 43207  55.4153 117.7423 0003848 350.0838   9.8804  1.86231590 26244
BEIDOU-3 M6 (C22)       
1 43208U 18018B   21357.09905930  .00000029  00000+0  00000+0 0  9997
2 43208  55.4146 117.7265 0005623 298.3010  61.6181  1.86231556 26257
BEIDOU-3 M7 (C29)       
1 43245U 18029A   21357.05325521 -.00000068  00000+0  00000+0 0  9992
2 43245  55.2810 356.4721 0001381 268.0744 270.8158  1.86232508 25400
BEIDOU-3 M8 (C30)       
1 43246U 18029B   21356.93852429 -.00000068  00000+0  10000-3 0  9996
2 43246  55.2779 356.5063 0004184 334.8028 173.5521  1.86232761 25398
BEIDOU IGSO-7 (C16)     
1 43539U 18057A   21356.94548878 -.00000059  00000+0  00000+0 0  9998
2 43539  55.0638 177.2707 0040141 220.6096 147.2197  1.00264048 12749
BEIDOU-3 M9 (C23)       
1 43581U 18062A   21356.77127185  .00000045  00000+0  00000+0 0  9990
2 43581  54.3319 238.1393 0003641 307.9150 298.8088  1.86231873 23137
BEIDOU-3 M10 (C24)      
1 43582U 18062B   21357.17992727  .00000045  00000+0  00000+0 0  9998
2 43582  54.3314 238.1145 0006614   6.3351 245.9775  1.86232376 23140
BEIDOU-3 M11 (C25)      
1 43602U 18067A   21357.46064569  .00000046  00000+0  00000+0 0  9993
2 43602  54.4106 236.7043 0007797   6.9136 115.3551  1.86231538 22649
BEIDOU-3 M12 (C26)      
1 43603U 18067B   21356.72878002  .00000048  00000+0  00000+0 0  9999
2 43603  54.4071 236.6963 0004934   1.0323 260.9712  1.86231676 22644
BEIDOU-3 M13 (C32)      
1 43622U 18072A   21356.70094926  .00000025  00000+0  00000+0 0  9994
2 43622  55.3814 117.2969 0004606 275.2066 357.9642  1.86231424 22151
BEIDOU-3 M14 (C33)      
1 43623U 18072B   21356.56719429  .00000024  00000+0  00000+0 0  9990
2 43623  55.3827 117.2935 0002356 316.7970 316.9301  1.86231414 22150
BEIDOU-3 M15 (C34)      
1 43647U 18078A   21356.64240852 -.00000070  00000+0  10000-3 0  9997
2 43647  55.1745 356.6595 0006342 347.0030 232.4560  1.86232670 21666
BEIDOU-3 M16 (C35)      
1 43648U 18078B   21356.77647869 -.00000069  00000+0  00000+0 0  9994
2 43648  55.1715 356.6616 0004072 352.0793 225.3849  1.86232168 21683
BEIDOU-3 G1 (C59)       
1 43683U 18085A   21357.03272944 -.00000259  00000+0  00000+0 0  9990
2 43683   0.8523 198.3896 0004742  52.8292 352.4383  1.00272271 11634
BEIDOU-3 M17 (C36)      
1 43706U 18093A   21357.14173769  .00000045  00000+0  00000+0 0  9994
2 43706  54.4124 237.9992 0008306 285.5178  74.4842  1.86231956 21032
BEIDOU-3 M18 (C37)      
1 43707U 18093B   21357.37976632  .00000045  00000+0  00000+0 0  9990
2 43707  54.4130 237.9812 0008221 311.8168 298.8190  1.86232204 21045
BEIDOU-3 IGSO-1 (C38)   
1 44204U 19023A   21357.37153598 -.00000211  00000+0  00000+0 0  9991
2 44204  56.2980  54.8700 0022932 192.6214  96.7197  1.00264033  9943
BEIDOU-2 G8             
1 44231U 19027A   21356.85291425 -.00000228  00000+0  00000+0 0  9997
2 44231   0.4627  61.3380 0006897 152.0676 329.8032  1.00275183  9657
BEIDOU-3 IGSO-2 (C39)   
1 44337U 19035A   21357.03920628 -.00000065  00000+0  00000+0 0  9997
2 44337  55.0997 173.3014 0020785 176.7920 233.2790  1.00254317  9289
BEIDOU-3 M23 (C45)      
1 44542U 19061A   21357.33426646  .00000045  00000+0  10000-3 0  9990
2 44542  54.6381 238.0988 0009165 343.0091 189.5865  1.86231552 15301
BEIDOU-3 M24 (C46)      
1 44543U 19061B   21356.93938317  .00000046  00000+0  00000+0 0  9995
2 44543  54.6362 238.0823 0006108 339.3056 199.6167  1.86231986 15298
BEIDOU-3 IGSO-3         
1 44709U 19073A   21356.76611188 -.00000180  00000+0  00000+0 0  9997
2 44709  57.5503 298.2151 0018331 186.1510   1.7194  1.00260504  8038
BEIDOU-3 M21            
1 44793U 19078A   21356.65161432 -.00000070  00000+0  10000-3 0  9998
2 44793  55.0222 356.7027 0006004 354.2438 185.5653  1.86232175 14153
BEIDOU-3 M22            
1 44794U 19078B   21356.78566891 -.00000070  00000+0  00000+0 0  9996
2 44794  54.9970 356.6929 0004080 344.6284 196.3866  1.86232687 14150
BEIDOU-3 M19            
1 44864U 19090A   21356.63203814  .00000025  00000+0  00000+0 0  9994
2 44864  55.3157 117.5205 0014948 262.9995   9.5724  1.86231684 13733
BEIDOU-3 M20            
1 44865U 19090B   21356.69614811  .00000026  00000+0  00000+0 0  9995
2 44865  55.3184 117.5481 0013117 278.4943 126.9543  1.86231649 13714
BEIDOU-3 G2             
1 45344U 20017A   21356.84000593 -.00000122  00000+0  00000+0 0  9990
2 45344   2.2129 343.8681 0000735 225.1443 265.0103  1.00270175  6845
BEIDOU-3 G3             
1 45807U 20040A   21356.93125304 -.00000334  00000+0  00000+0 0  9993
2 45807   1.8428 300.3015 0009616 354.3045 242.8580  1.00268027  5669
